[{"id":"28366","name":"APRIZESAT 2","tle1":"1 28366U 04025A   26175.72980385  .00000171  00000+0  66375-4 0  9998","tle2":"2 28366  98.1021 341.2834 0104626 226.8287 132.4122 14.38038541152726"},{"id":"28369","name":"SAUDICOMSAT 1","tle1":"1 28369U 04025D   26176.26576093  .00000363  00000+0  94380-4 0  9998","tle2":"2 28369  98.5770 186.6151 0032122   1.1500 358.9765 14.55479596165304"},{"id":"28370","name":"SAUDICOMSAT 2","tle1":"1 28370U 04025E   26175.99185578  .00000209  00000+0  65595-4 0  9998","tle2":"2 28370  98.6639 188.4589 0054416 235.3799 124.2256 14.49984951161233"},{"id":"28372","name":"APRIZESAT 1","tle1":"1 28372U 04025G   26176.28958341  .00000263  00000+0  76612-4 0  9991","tle2":"2 28372  98.6302 187.2357 0045488 129.6493 230.8728 14.51781172163083"},{"id":"28493","name":"NANOSAT-1","tle1":"1 28493U 04049B   26176.21358820  .00000963  00000+0  13406-3 0  9998","tle2":"2 28493  98.2285 313.0712 0002711 264.6923  95.3979 14.80173900156638"},{"id":"31119","name":"SAUDICOMSAT 7","tle1":"1 31119U 07012C   26176.16609671  .00000465  00000+0  92291-4 0  9994","tle2":"2 31119  98.3780 150.4611 0055861 170.1476 190.0836 14.66116975 23605"},{"id":"31121","name":"SAUDICOMSAT 6","tle1":"1 31121U 07012E   26176.16303725  .00000501  00000+0  10563-3 0  9990","tle2":"2 31121  98.4101 143.8279 0070612 302.6178  56.8220 14.62566657 21352"},{"id":"31124","name":"SAUDICOMSAT 5","tle1":"1 31124U 07012H   26176.19655135  .00000640  00000+0  11839-3 0  9992","tle2":"2 31124  98.3492 151.2375 0048713 100.1412 260.5292 14.68165928 24770"},{"id":"31125","name":"SAUDICOMSAT 3","tle1":"1 31125U 07012J   26175.87106390  .00000799  00000+0  13829-3 0  9997","tle2":"2 31125  98.3146 151.4531 0039802  29.5335 330.8108 14.70717649 25954"},{"id":"31127","name":"SAUDICOMSAT 4","tle1":"1 31127U 07012L   26176.14839905  .00000412  00000+0  85569-4 0  9998","tle2":"2 31127  98.3986 148.8814 0062292 232.8546 126.6957 14.64518921 22454"},{"id":"35684","name":"APRIZESAT 4","tle1":"1 35684U 09041D   26176.14652464  .00000593  00000+0  77388-4 0  9997","tle2":"2 35684  98.1409 251.6256 0042011 296.5870  63.1042 14.83888656912545"},{"id":"35686","name":"APRIZESAT 3","tle1":"1 35686U 09041F   26176.19075926  .00001232  00000+0  11073-3 0  9995","tle2":"2 35686  98.2074 329.7984 0062622  41.6843 318.9124 14.96265947917576"},{"id":"43186","name":"S-NET D","tle1":"1 43186U 18014G   26176.24683595  .00005175  00000+0  26707-3 0  9992","tle2":"2 43186  97.5359  80.9868 0008069   4.5392 355.5913 15.16741116459986"},{"id":"43187","name":"S-NET B","tle1":"1 43187U 18014H   26176.19247264  .00005433  00000+0  28043-3 0  9998","tle2":"2 43187  97.5364  80.9199 0008519 358.9748   1.1466 15.16711520459973"},{"id":"43188","name":"S-NET A","tle1":"1 43188U 18014J   26176.24566968  .00005290  00000+0  27287-3 0  9990","tle2":"2 43188  97.5375  81.1828 0008430 359.7466   0.3761 15.16749546459985"},{"id":"43189","name":"S-NET C","tle1":"1 43189U 18014K   26176.19638923  .00005474  00000+0  28252-3 0  9993","tle2":"2 43189  97.5391  81.2101 0009518 350.5975   9.5078 15.16703488458527"},{"id":"46495","name":"SALSAT","tle1":"1 46495U 20068K   26176.25605951  .00008540  00000+0  29756-3 0  9997","tle2":"2 46495  97.8852 179.8123 0007805 273.7441  86.2905 15.29904088316598"},{"id":"60240","name":"OOV-CUBE (TUBSAT-30)","tle1":"1 60240U 24128F   26176.23970213  .00001615  00000+0  13344-3 0  9998","tle2":"2 60240  61.9924 197.4933 0043634 135.5626 224.8979 15.02799943107322"},{"id":"68408","name":"LPNTSAT-001 (IOD-1)","tle1":"1 68408U 26065A   26176.18172846  .00002752  00000+0  13604-3 0  9996","tle2":"2 68408  97.4014  56.5221 0015810 342.6313  17.4378 15.18575018 13477"}]